EUTELSAT 8 WEST B       
1 40875U 15039B   25220.89785612 -.00000063  00000+0  00000+0 0  9997
2 40875   0.0665 349.5897 0003611 148.5372 134.7303  1.00271775 36526
EUTELSAT 9B             
1 41310U 16005A   25221.18670869  .00000063  00000+0  00000+0 0  9995
2 41310   0.0203  56.5869 0001481  92.0137 245.5341  1.00270248 34983
EUTELSAT 65 WEST A      
1 41382U 16014A   25221.17197529 -.00000274  00000+0  00000+0 0  9995
2 41382   0.0516  20.9143 0002281 115.2294 178.4874  1.00270744 34526
EUTELSAT 117 WEST B     
1 41589U 16038B   25221.44725877 -.00000010  00000+0  00000+0 0  9991
2 41589   0.0164 238.8699 0000165  27.2867  96.0380  1.00272464 33580
EUTELSAT 172B           
1 42741U 17029B   25220.86214931 -.00000004  00000+0  00000+0 0  9995
2 42741   0.0202 162.7162 0000376 264.2462  13.0186  1.00270740 30598
EUTELSAT 7C             
1 44334U 19034B   25221.18627536  .00000050  00000+0  00000+0 0  9998
2 44334   0.0747 190.8323 0003448 293.7895 267.3693  1.00271599 23001
EUTELSAT 5 WEST B       
1 44624U 19067A   25221.18393535 -.00000040  00000+0  00000+0 0  9995
2 44624   0.0888 310.7109 0003163 187.2294 241.1933  1.00271392 21307
EUTELSAT KONNECT        
1 45027U 20005B   25221.18636203  .00000051  00000+0  00000+0 0  9990
2 45027   0.0567  96.4003 0001329  84.4412 211.3680  1.00268256 21192
